KUIPER-00053            
1 64513U 25134P   25320.50497186  .00004071  00000+0  56354-3 0  9993
2 64513  51.9035   3.3413 0002349 314.5564  45.5207 14.79870222 23453
KUIPER-00054            
1 64514U 25134Q   25320.39878084  .00008082  00000+0  10868-2 0  9996
2 64514  51.8993 359.0527 0005131 293.8945  66.1480 14.79971167 23505
KUIPER-00055            
1 64515U 25134R   25320.32442678  .00030990  00000+0  15667-2 0  9991
2 64515  51.8946 352.3407 0002244  55.1620 304.9569 15.16789620 23591
KUIPER-00056            
1 64516U 25134S   25320.39174485 -.00014834  00000+0 -19266-2 0  9997
2 64516  51.9030   5.1103 0001506 276.4325  83.6466 14.79811005 23423
KUIPER-00057            
1 64517U 25134T   25320.45114589  .00002881  00000+0  40657-3 0  9990
2 64517  51.8999  12.3493 0008787 264.4133  95.5827 14.79949428 23324
KUIPER-00058            
1 64518U 25134U   25320.39073387  .00014088  00000+0  18715-2 0  9995
2 64518  51.9022   6.5334 0004622 301.2704  58.7805 14.79964898 23404
KUIPER-00059            
1 64519U 25134V   25320.39611779  .00007255  00000+0  97923-3 0  9996
2 64519  51.9010   1.5665 0004183  92.4197 267.7244 14.79952708 23474
KUIPER-00060            
1 64520U 25134W   25320.39408869  .00005973  00000+0  80957-3 0  9996
2 64520  51.9040   2.6053 0002065 359.6163   0.4797 14.80049709 23442
