<?xml version="1.0" encoding="UTF-8"?>
<ndm xmlns:xsi="http://www.w3.org/2001/XMLSchema-instance" xsi:noNamespaceSchemaLocation="https://sanaregistry.org/r/ndmxml_unqualified/ndmxml-2.0.0-master-2.0.xsd">
<omm id="CCSDS_OMM_VERS" version="2.0">
<header><CREATION_DATE/><ORIGINATOR/></header><body><segment><metadata><OBJECT_NAME>KUIPER-00053</OBJECT_NAME><OBJECT_ID>2025-134P</OBJECT_ID><CENTER_NAME>EARTH</CENTER_NAME><REF_FRAME>TEME</REF_FRAME><TIME_SYSTEM>UTC</TIME_SYSTEM><MEAN_ELEMENT_THEORY>SGP4</MEAN_ELEMENT_THEORY></metadata><data><meanElements><EPOCH>2025-11-16T12:07:09.568704</EPOCH><MEAN_MOTION>14.79870222</MEAN_MOTION><ECCENTRICITY>.0002349</ECCENTRICITY><INCLINATION>51.9035</INCLINATION><RA_OF_ASC_NODE>3.3413</RA_OF_ASC_NODE><ARG_OF_PERICENTER>314.5564</ARG_OF_PERICENTER><MEAN_ANOMALY>45.5207</MEAN_ANOMALY></meanElements><tleParameters><EPHEMERIS_TYPE>0</EPHEMERIS_TYPE><CLASSIFICATION_TYPE>U</CLASSIFICATION_TYPE><NORAD_CAT_ID>64513</NORAD_CAT_ID><ELEMENT_SET_NO>999</ELEMENT_SET_NO><REV_AT_EPOCH>2345</REV_AT_EPOCH><BSTAR>.56354E-3</BSTAR><MEAN_MOTION_DOT>.4071E-4</MEAN_MOTION_DOT><MEAN_MOTION_DDOT>0</MEAN_MOTION_DDOT></tleParameters></data></segment></body></omm>
<omm id="CCSDS_OMM_VERS" version="2.0">
<header><CREATION_DATE/><ORIGINATOR/></header><body><segment><metadata><OBJECT_NAME>KUIPER-00054</OBJECT_NAME><OBJECT_ID>2025-134Q</OBJECT_ID><CENTER_NAME>EARTH</CENTER_NAME><REF_FRAME>TEME</REF_FRAME><TIME_SYSTEM>UTC</TIME_SYSTEM><MEAN_ELEMENT_THEORY>SGP4</MEAN_ELEMENT_THEORY></metadata><data><meanElements><EPOCH>2025-11-16T09:34:14.664576</EPOCH><MEAN_MOTION>14.79971167</MEAN_MOTION><ECCENTRICITY>.0005131</ECCENTRICITY><INCLINATION>51.8993</INCLINATION><RA_OF_ASC_NODE>359.0527</RA_OF_ASC_NODE><ARG_OF_PERICENTER>293.8945</ARG_OF_PERICENTER><MEAN_ANOMALY>66.1480</MEAN_ANOMALY></meanElements><tleParameters><EPHEMERIS_TYPE>0</EPHEMERIS_TYPE><CLASSIFICATION_TYPE>U</CLASSIFICATION_TYPE><NORAD_CAT_ID>64514</NORAD_CAT_ID><ELEMENT_SET_NO>999</ELEMENT_SET_NO><REV_AT_EPOCH>2350</REV_AT_EPOCH><BSTAR>.10868E-2</BSTAR><MEAN_MOTION_DOT>.8082E-4</MEAN_MOTION_DOT><MEAN_MOTION_DDOT>0</MEAN_MOTION_DDOT></tleParameters></data></segment></body></omm>
<omm id="CCSDS_OMM_VERS" version="2.0">
<header><CREATION_DATE/><ORIGINATOR/></header><body><segment><metadata><OBJECT_NAME>KUIPER-00055</OBJECT_NAME><OBJECT_ID>2025-134R</OBJECT_ID><CENTER_NAME>EARTH</CENTER_NAME><REF_FRAME>TEME</REF_FRAME><TIME_SYSTEM>UTC</TIME_SYSTEM><MEAN_ELEMENT_THEORY>SGP4</MEAN_ELEMENT_THEORY></metadata><data><meanElements><EPOCH>2025-11-16T07:47:10.473792</EPOCH><MEAN_MOTION>15.16789620</MEAN_MOTION><ECCENTRICITY>.0002244</ECCENTRICITY><INCLINATION>51.8946</INCLINATION><RA_OF_ASC_NODE>352.3407</RA_OF_ASC_NODE><ARG_OF_PERICENTER>55.1620</ARG_OF_PERICENTER><MEAN_ANOMALY>304.9569</MEAN_ANOMALY></meanElements><tleParameters><EPHEMERIS_TYPE>0</EPHEMERIS_TYPE><CLASSIFICATION_TYPE>U</CLASSIFICATION_TYPE><NORAD_CAT_ID>64515</NORAD_CAT_ID><ELEMENT_SET_NO>999</ELEMENT_SET_NO><REV_AT_EPOCH>2359</REV_AT_EPOCH><BSTAR>.15667E-2</BSTAR><MEAN_MOTION_DOT>.3099E-3</MEAN_MOTION_DOT><MEAN_MOTION_DDOT>0</MEAN_MOTION_DDOT></tleParameters></data></segment></body></omm>
<omm id="CCSDS_OMM_VERS" version="2.0">
<header><CREATION_DATE/><ORIGINATOR/></header><body><segment><metadata><OBJECT_NAME>KUIPER-00056</OBJECT_NAME><OBJECT_ID>2025-134S</OBJECT_ID><CENTER_NAME>EARTH</CENTER_NAME><REF_FRAME>TEME</REF_FRAME><TIME_SYSTEM>UTC</TIME_SYSTEM><MEAN_ELEMENT_THEORY>SGP4</MEAN_ELEMENT_THEORY></metadata><data><meanElements><EPOCH>2025-11-16T09:24:06.755040</EPOCH><MEAN_MOTION>14.79811005</MEAN_MOTION><ECCENTRICITY>.0001506</ECCENTRICITY><INCLINATION>51.9030</INCLINATION><RA_OF_ASC_NODE>5.1103</RA_OF_ASC_NODE><ARG_OF_PERICENTER>276.4325</ARG_OF_PERICENTER><MEAN_ANOMALY>83.6466</MEAN_ANOMALY></meanElements><tleParameters><EPHEMERIS_TYPE>0</EPHEMERIS_TYPE><CLASSIFICATION_TYPE>U</CLASSIFICATION_TYPE><NORAD_CAT_ID>64516</NORAD_CAT_ID><ELEMENT_SET_NO>999</ELEMENT_SET_NO><REV_AT_EPOCH>2342</REV_AT_EPOCH><BSTAR>-.19266E-2</BSTAR><MEAN_MOTION_DOT>-.14834E-3</MEAN_MOTION_DOT><MEAN_MOTION_DDOT>0</MEAN_MOTION_DDOT></tleParameters></data></segment></body></omm>
<omm id="CCSDS_OMM_VERS" version="2.0">
<header><CREATION_DATE/><ORIGINATOR/></header><body><segment><metadata><OBJECT_NAME>KUIPER-00057</OBJECT_NAME><OBJECT_ID>2025-134T</OBJECT_ID><CENTER_NAME>EARTH</CENTER_NAME><REF_FRAME>TEME</REF_FRAME><TIME_SYSTEM>UTC</TIME_SYSTEM><MEAN_ELEMENT_THEORY>SGP4</MEAN_ELEMENT_THEORY></metadata><data><meanElements><EPOCH>2025-11-16T10:49:39.004896</EPOCH><MEAN_MOTION>14.79949428</MEAN_MOTION><ECCENTRICITY>.0008787</ECCENTRICITY><INCLINATION>51.8999</INCLINATION><RA_OF_ASC_NODE>12.3493</RA_OF_ASC_NODE><ARG_OF_PERICENTER>264.4133</ARG_OF_PERICENTER><MEAN_ANOMALY>95.5827</MEAN_ANOMALY></meanElements><tleParameters><EPHEMERIS_TYPE>0</EPHEMERIS_TYPE><CLASSIFICATION_TYPE>U</CLASSIFICATION_TYPE><NORAD_CAT_ID>64517</NORAD_CAT_ID><ELEMENT_SET_NO>999</ELEMENT_SET_NO><REV_AT_EPOCH>2332</REV_AT_EPOCH><BSTAR>.40657E-3</BSTAR><MEAN_MOTION_DOT>.2881E-4</MEAN_MOTION_DOT><MEAN_MOTION_DDOT>0</MEAN_MOTION_DDOT></tleParameters></data></segment></body></omm>
<omm id="CCSDS_OMM_VERS" version="2.0">
<header><CREATION_DATE/><ORIGINATOR/></header><body><segment><metadata><OBJECT_NAME>KUIPER-00058</OBJECT_NAME><OBJECT_ID>2025-134U</OBJECT_ID><CENTER_NAME>EARTH</CENTER_NAME><REF_FRAME>TEME</REF_FRAME><TIME_SYSTEM>UTC</TIME_SYSTEM><MEAN_ELEMENT_THEORY>SGP4</MEAN_ELEMENT_THEORY></metadata><data><meanElements><EPOCH>2025-11-16T09:22:39.406368</EPOCH><MEAN_MOTION>14.79964898</MEAN_MOTION><ECCENTRICITY>.0004622</ECCENTRICITY><INCLINATION>51.9022</INCLINATION><RA_OF_ASC_NODE>6.5334</RA_OF_ASC_NODE><ARG_OF_PERICENTER>301.2704</ARG_OF_PERICENTER><MEAN_ANOMALY>58.7805</MEAN_ANOMALY></meanElements><tleParameters><EPHEMERIS_TYPE>0</EPHEMERIS_TYPE><CLASSIFICATION_TYPE>U</CLASSIFICATION_TYPE><NORAD_CAT_ID>64518</NORAD_CAT_ID><ELEMENT_SET_NO>999</ELEMENT_SET_NO><REV_AT_EPOCH>2340</REV_AT_EPOCH><BSTAR>.18715E-2</BSTAR><MEAN_MOTION_DOT>.14088E-3</MEAN_MOTION_DOT><MEAN_MOTION_DDOT>0</MEAN_MOTION_DDOT></tleParameters></data></segment></body></omm>
<omm id="CCSDS_OMM_VERS" version="2.0">
<header><CREATION_DATE/><ORIGINATOR/></header><body><segment><metadata><OBJECT_NAME>KUIPER-00059</OBJECT_NAME><OBJECT_ID>2025-134V</OBJECT_ID><CENTER_NAME>EARTH</CENTER_NAME><REF_FRAME>TEME</REF_FRAME><TIME_SYSTEM>UTC</TIME_SYSTEM><MEAN_ELEMENT_THEORY>SGP4</MEAN_ELEMENT_THEORY></metadata><data><meanElements><EPOCH>2025-11-16T09:30:24.577056</EPOCH><MEAN_MOTION>14.79952708</MEAN_MOTION><ECCENTRICITY>.0004183</ECCENTRICITY><INCLINATION>51.9010</INCLINATION><RA_OF_ASC_NODE>1.5665</RA_OF_ASC_NODE><ARG_OF_PERICENTER>92.4197</ARG_OF_PERICENTER><MEAN_ANOMALY>267.7244</MEAN_ANOMALY></meanElements><tleParameters><EPHEMERIS_TYPE>0</EPHEMERIS_TYPE><CLASSIFICATION_TYPE>U</CLASSIFICATION_TYPE><NORAD_CAT_ID>64519</NORAD_CAT_ID><ELEMENT_SET_NO>999</ELEMENT_SET_NO><REV_AT_EPOCH>2347</REV_AT_EPOCH><BSTAR>.97923E-3</BSTAR><MEAN_MOTION_DOT>.7255E-4</MEAN_MOTION_DOT><MEAN_MOTION_DDOT>0</MEAN_MOTION_DDOT></tleParameters></data></segment></body></omm>
<omm id="CCSDS_OMM_VERS" version="2.0">
<header><CREATION_DATE/><ORIGINATOR/></header><body><segment><metadata><OBJECT_NAME>KUIPER-00060</OBJECT_NAME><OBJECT_ID>2025-134W</OBJECT_ID><CENTER_NAME>EARTH</CENTER_NAME><REF_FRAME>TEME</REF_FRAME><TIME_SYSTEM>UTC</TIME_SYSTEM><MEAN_ELEMENT_THEORY>SGP4</MEAN_ELEMENT_THEORY></metadata><data><meanElements><EPOCH>2025-11-16T09:27:29.262816</EPOCH><MEAN_MOTION>14.80049709</MEAN_MOTION><ECCENTRICITY>.0002065</ECCENTRICITY><INCLINATION>51.9040</INCLINATION><RA_OF_ASC_NODE>2.6053</RA_OF_ASC_NODE><ARG_OF_PERICENTER>359.6163</ARG_OF_PERICENTER><MEAN_ANOMALY>0.4797</MEAN_ANOMALY></meanElements><tleParameters><EPHEMERIS_TYPE>0</EPHEMERIS_TYPE><CLASSIFICATION_TYPE>U</CLASSIFICATION_TYPE><NORAD_CAT_ID>64520</NORAD_CAT_ID><ELEMENT_SET_NO>999</ELEMENT_SET_NO><REV_AT_EPOCH>2344</REV_AT_EPOCH><BSTAR>.80957E-3</BSTAR><MEAN_MOTION_DOT>.5973E-4</MEAN_MOTION_DOT><MEAN_MOTION_DDOT>0</MEAN_MOTION_DDOT></tleParameters></data></segment></body></omm>

</ndm>
